{
  "type": "FeatureCollection",
  "features": [
    {
      "type": "Feature",
      "properties": {
        "norad_id": 41890,
        "name": "CYGFM07",
        "group": "weather",
        "lat": 32.40232604764195,
        "lon": 168.5915094683461,
        "alt_km": 408.50839069830363,
        "timestamp": "2025-12-07T18:50:16.368117+00:00",
        "meta_object_name": "CYGFM07",
        "meta_object_id": "2016-078G",
        "meta_epoch": "2025-12-07T05:59:39.167232",
        "meta_mean_motion": 15.49672777,
        "meta_eccentricity": 0.00092905,
        "meta_inclination": 34.9482,
        "meta_ra_of_asc_node": 57.4395,
        "meta_arg_of_pericenter": 166.8164,
        "meta_mean_anomaly": 193.2802,
        "meta_ephemeris_type": 0,
        "meta_classification_type": "U",
        "meta_norad_cat_id": 41890,
        "meta_element_set_no": 999,
        "meta_rev_at_epoch": 49910,
        "meta_bstar": 0.00053383304,
        "meta_mean_motion_dot": 0.00030627,
        "meta_mean_motion_ddot": 0,
        "tle_line1": "1 41890U 16078G   25341.24975888  .00030627  00000+0  53383-3 0  9992",
        "tle_line2": "2 41890  34.9482  57.4395 0009290 166.8164 193.2802 15.49672777499102"
      },
      "geometry": {
        "type": "Point",
        "coordinates": [
          168.5915094683461,
          32.40232604764195
        ]
      }
    },
    {
      "type": "Feature",
      "properties": {
        "norad_id": 41891,
        "name": "CYGFM03",
        "group": "weather",
        "lat": -27.13431187523841,
        "lon": 8.628054236251183,
        "alt_km": 424.4453628125275,
        "timestamp": "2025-12-07T18:50:16.368127+00:00",
        "meta_object_name": "CYGFM03",
        "meta_object_id": "2016-078H",
        "meta_epoch": "2025-12-07T06:41:44.733408",
        "meta_mean_motion": 15.49575855,
        "meta_eccentricity": 0.0008555,
        "meta_inclination": 34.9434,
        "meta_ra_of_asc_node": 59.163,
        "meta_arg_of_pericenter": 154.006,
        "meta_mean_anomaly": 206.1093,
        "meta_ephemeris_type": 0,
        "meta_classification_type": "U",
        "meta_norad_cat_id": 41891,
        "meta_element_set_no": 999,
        "meta_rev_at_epoch": 49908,
        "meta_bstar": 0.00052952955,
        "meta_mean_motion_dot": 0.00030266,
        "meta_mean_motion_ddot": 0,
        "tle_line1": "1 41891U 16078H   25341.27898997  .00030266  00000+0  52953-3 0  9992",
        "tle_line2": "2 41891  34.9434  59.1630 0008555 154.0060 206.1093 15.49575855499080"
      },
      "geometry": {
        "type": "Point",
        "coordinates": [
          8.628054236251183,
          -27.13431187523841
        ]
      }
    },
    {
      "type": "Feature",
      "properties": {
        "norad_id": 43010,
        "name": "FENGYUN 3D",
        "group": "weather",
        "lat": -75.30777431331227,
        "lon": 90.8877366270695,
        "alt_km": 833.4480642921735,
        "timestamp": "2025-12-07T18:50:16.368137+00:00",
        "meta_object_name": "FENGYUN 3D",
        "meta_object_id": "2017-072A",
        "meta_epoch": "2025-12-07T05:47:04.331040",
        "meta_mean_motion": 14.19681484,
        "meta_eccentricity": 7.555e-05,
        "meta_inclination": 98.9887,
        "meta_ra_of_asc_node": 307.4692,
        "meta_arg_of_pericenter": 199.6926,
        "meta_mean_anomaly": 160.4221,
        "meta_ephemeris_type": 0,
        "meta_classification_type": "U",
        "meta_norad_cat_id": 43010,
        "meta_element_set_no": 999,
        "meta_rev_at_epoch": 41775,
        "meta_bstar": 0.00012659197,
        "meta_mean_motion_dot": 2.22e-06,
        "meta_mean_motion_ddot": 0,
        "tle_line1": "1 43010U 17072A   25341.24102235  .00000222  00000+0  12659-3 0  9990",
        "tle_line2": "2 43010  98.9887 307.4692 0000755 199.6926 160.4221 14.19681484417755"
      },
      "geometry": {
        "type": "Point",
        "coordinates": [
          90.8877366270695,
          -75.30777431331227
        ]
      }
    },
    {
      "type": "Feature",
      "properties": {
        "norad_id": 43013,
        "name": "NOAA 20 (JPSS-1)",
        "group": "weather",
        "lat": 52.57872223703866,
        "lon": -93.48855788494667,
        "alt_km": 820.8359997190037,
        "timestamp": "2025-12-07T18:50:16.368148+00:00",
        "meta_object_name": "NOAA 20 (JPSS-1)",
        "meta_object_id": "2017-073A",
        "meta_epoch": "2025-12-07T05:03:13.048416",
        "meta_mean_motion": 14.19523424,
        "meta_eccentricity": 0.000212,
        "meta_inclination": 98.7591,
        "meta_ra_of_asc_node": 277.5681,
        "meta_arg_of_pericenter": 94.9588,
        "meta_mean_anomaly": 265.183,
        "meta_ephemeris_type": 0,
        "meta_classification_type": "U",
        "meta_norad_cat_id": 43013,
        "meta_element_set_no": 999,
        "meta_rev_at_epoch": 41723,
        "meta_bstar": 0.00011112596,
        "meta_mean_motion_dot": 1.9e-06,
        "meta_mean_motion_ddot": 0,
        "tle_line1": "1 43013U 17073A   25341.21056769  .00000190  00000+0  11113-3 0  9999",
        "tle_line2": "2 43013  98.7591 277.5681 0002120  94.9588 265.1830 14.19523424417233"
      },
      "geometry": {
        "type": "Point",
        "coordinates": [
          -93.48855788494667,
          52.57872223703866
        ]
      }
    },
    {
      "type": "Feature",
      "properties": {
        "norad_id": 43226,
        "name": "GOES 17",
        "group": "weather",
        "lat": -0.028223331915096146,
        "lon": -90.13754029712732,
        "alt_km": 35771.49737293021,
        "timestamp": "2025-12-07T18:50:16.368160+00:00",
        "meta_object_name": "GOES 17",
        "meta_object_id": "2018-022A",
        "meta_epoch": "2025-12-07T06:21:41.762880",
        "meta_mean_motion": 1.00270856,
        "meta_eccentricity": 0.00035216,
        "meta_inclination": 0.4452,
        "meta_ra_of_asc_node": 89.2216,
        "meta_arg_of_pericenter": 184.345,
        "meta_mean_anomaly": 168.6497,
        "meta_ephemeris_type": 0,
        "meta_classification_type": "U",
        "meta_norad_cat_id": 43226,
        "meta_element_set_no": 999,
        "meta_rev_at_epoch": 2849,
        "meta_bstar": 0,
        "meta_mean_motion_dot": -1.78e-06,
        "meta_mean_motion_ddot": 0,
        "tle_line1": "1 43226U 18022A   25341.26506670 -.00000178  00000+0  00000+0 0  9992",
        "tle_line2": "2 43226   0.4452  89.2216 0003521 184.3450 168.6497  1.00270856 28491"
      },
      "geometry": {
        "type": "Point",
        "coordinates": [
          -90.13754029712732,
          -0.028223331915096146
        ]
      }
    },
    {
      "type": "Feature",
      "properties": {
        "norad_id": 43491,
        "name": "FENGYUN 2H",
        "group": "weather",
        "lat": -0.09355080589193672,
        "lon": 78.72457082882362,
        "alt_km": 35798.3056208805,
        "timestamp": "2025-12-07T18:50:16.368172+00:00",
        "meta_object_name": "FENGYUN 2H",
        "meta_object_id": "2018-050A",
        "meta_epoch": "2025-12-07T02:01:38.144064",
        "meta_mean_motion": 1.0027128,
        "meta_eccentricity": 0.00029085,
        "meta_inclination": 2.5357,
        "meta_ra_of_asc_node": 81.3911,
        "meta_arg_of_pericenter": 165.2418,
        "meta_mean_anomaly": 299.2521,
        "meta_ephemeris_type": 0,
        "meta_classification_type": "U",
        "meta_norad_cat_id": 43491,
        "meta_element_set_no": 999,
        "meta_rev_at_epoch": 2751,
        "meta_bstar": 0,
        "meta_mean_motion_dot": -1.26e-06,
        "meta_mean_motion_ddot": 0,
        "tle_line1": "1 43491U 18050A   25341.08446926 -.00000126  00000+0  00000+0 0  9997",
        "tle_line2": "2 43491   2.5357  81.3911 0002908 165.2418 299.2521  1.00271280 27510"
      },
      "geometry": {
        "type": "Point",
        "coordinates": [
          78.72457082882362,
          -0.09355080589193672
        ]
      }
    },
    {
      "type": "Feature",
      "properties": {
        "norad_id": 43689,
        "name": "METOP-C",
        "group": "weather",
        "lat": 20.200053436145037,
        "lon": -137.14256394052887,
        "alt_km": 820.5963227960283,
        "timestamp": "2025-12-07T18:50:16.368183+00:00",
        "meta_object_name": "METOP-C",
        "meta_object_id": "2018-087A",
        "meta_epoch": "2025-12-07T06:15:54.951552",
        "meta_mean_motion": 14.2150876,
        "meta_eccentricity": 0.0001563,
        "meta_inclination": 98.6937,
        "meta_ra_of_asc_node": 39.1144,
        "meta_arg_of_pericenter": 51.5994,
        "meta_mean_anomaly": 308.5323,
        "meta_ephemeris_type": 0,
        "meta_classification_type": "U",
        "meta_norad_cat_id": 43689,
        "meta_element_set_no": 999,
        "meta_rev_at_epoch": 36756,
        "meta_bstar": 0.00015056438,
        "meta_mean_motion_dot": 2.86e-06,
        "meta_mean_motion_ddot": 0,
        "tle_line1": "1 43689U 18087A   25341.26105268  .00000286  00000+0  15056-3 0  9994",
        "tle_line2": "2 43689  98.6937  39.1144 0001563  51.5994 308.5323 14.21508760367569"
      },
      "geometry": {
        "type": "Point",
        "coordinates": [
          -137.14256394052887,
          20.200053436145037
        ]
      }
    }
  ]
}